[
    {
        "Altitude(m)": 617719.7324535116,
        "Argument of Periapsis(deg)": 0.0,
        "Eccentricity": 0.0,
        "Inclination(deg)": 60.0,
        "Latitude(deg)": -41.10253590669074,
        "Longitude(deg)": 45.09470371236195,
        "Mean Anomaly(deg)": -130.9091,
        "RAAN(deg)": 295.00000000000006,
        "Satellite Name": "Test1 1312",
        "Satellite Number": 1312,
        "Semi-Major Axis(m)": 6980739.136638005,
        "Time(s)": 0
    },
    {
        "Altitude(m)": 617911.2680656414,
        "Argument of Periapsis(deg)": 0.00010418945913296404,
        "Eccentricity": 0.0,
        "Inclination(deg)": 60.0,
        "Latitude(deg)": -41.56572732070019,
        "Longitude(deg)": 45.59911038249426,
        "Mean Anomaly(deg)": -130.28899385453815,
        "RAAN(deg)": 294.99957995086027,
        "Satellite Name": "Test1 1312",
        "Satellite Number": 1312,
        "Semi-Major Axis(m)": 6980739.136638005,
        "Time(s)": 10
    }
]